{"fetched_at":"2026-07-13T18:17:14.185Z","source":"https://celestrak.org/NORAD/elements/gp.php?NAME=RCM&FORMAT=JSON","constellation":"rcm","records":[{"OBJECT_NAME":"RCM-1","OBJECT_ID":"2019-033A","EPOCH":"2026-07-13T07:16:44.859936","CLASSIFICATION_TYPE":"U","MEAN_MOTION":14.925847,"ECCENTRICITY":0.00015303,"INCLINATION":97.7602,"RA_OF_ASC_NODE":201.3809,"ARG_OF_PERICENTER":93.4111,"MEAN_ANOMALY":32.5471,"EPHEMERIS_TYPE":0,"NORAD_CAT_ID":44322,"ELEMENT_SET_NO":999,"REV_AT_EPOCH":38597,"BSTAR":0.000020556607,"MEAN_MOTION_DOT":0.00000156,"MEAN_MOTION_DDOT":0},{"OBJECT_NAME":"RCM-3","OBJECT_ID":"2019-033B","EPOCH":"2026-07-13T07:15:34.098336","CLASSIFICATION_TYPE":"U","MEAN_MOTION":14.92590747,"ECCENTRICITY":0.0001495,"INCLINATION":97.7603,"RA_OF_ASC_NODE":201.4745,"ARG_OF_PERICENTER":89.8657,"MEAN_ANOMALY":270.2734,"EPHEMERIS_TYPE":0,"NORAD_CAT_ID":44323,"ELEMENT_SET_NO":999,"REV_AT_EPOCH":38599,"BSTAR":0.000021545039,"MEAN_MOTION_DOT":0.00000166,"MEAN_MOTION_DDOT":0},{"OBJECT_NAME":"RCM-2","OBJECT_ID":"2019-033C","EPOCH":"2026-07-13T07:47:32.671680","CLASSIFICATION_TYPE":"U","MEAN_MOTION":14.92585749,"ECCENTRICITY":0.00015193,"INCLINATION":97.7601,"RA_OF_ASC_NODE":201.4467,"ARG_OF_PERICENTER":91.1076,"MEAN_ANOMALY":269.0317,"EPHEMERIS_TYPE":0,"NORAD_CAT_ID":44324,"ELEMENT_SET_NO":999,"REV_AT_EPOCH":38598,"BSTAR":-0.000012092426,"MEAN_MOTION_DOT":-0.0000018,"MEAN_MOTION_DDOT":0}]}
