RCM-1                   
1 44322U 19033A   26194.30329699  .00000156  00000+0  20557-4 0  9998
2 44322  97.7602 201.3809 0001530  93.4111  32.5471 14.92584700385973
RCM-3                   
1 44323U 19033B   26194.30247799  .00000166  00000+0  21545-4 0  9998
2 44323  97.7603 201.4745 0001495  89.8657 270.2734 14.92590747385992
RCM-2                   
1 44324U 19033C   26194.32468370 -.00000180  00000+0 -12092-4 0  9996
2 44324  97.7601 201.4467 0001519  91.1076 269.0317 14.92585749385988
